<?xml version="1.0" encoding="UTF-8"?>
<osm version="0.6" generator="manual example" copyright="OpenStreetMap and contributors" attribution="http://www.openstreetmap.org/copyright" license="http://opendatacommons.org/licenses/odbl/1-0/">
  <!--
    Manual example.
    ./poc/osmdump2rdfcli.py reference/zzz-region-1.xml
  -->
  <node id="1" visible="true" version="33" changeset="124176968" timestamp="2022-07-28T09:47:39Z" user="owene" uid="29598" lat="42.7957187" lon="13.5690032">
    <tag k="communication:microwave" v="yes" />
    <tag k="communication:radio" v="fm" />
    <tag k="description" v="Radio Subasio" />
    <tag k="frequency" v="105.5 MHz" />
    <tag k="man_made" v="mast" />
    <tag k="name" v="Monte Piselli - San Giacomo" />
    <tag k="tower:construction" v="lattice" />
    <tag k="tower:type" v="communication" />
  </node>
  <node id="2" visible="true" version="1" changeset="1" timestamp="2023-01-01T00:00:00Z" user="example user" uid="1" lat="-20.0000000" lon="40.0000000"/>
  <node id="3" visible="true" version="1" changeset="1" timestamp="2023-01-01T00:00:00Z" user="example user" uid="1" lat="-20.0010000" lon="40.0010000"/>
  <node id="4" visible="true" version="1" changeset="1" timestamp="2023-01-01T00:00:00Z" user="example user" uid="1" lat="-20.0020000" lon="40.0020000"/>

  <way id="100" visible="true" version="16" changeset="115876760" timestamp="2022-01-07T13:12:29Z" user="XXXVII" uid="13801736">
    <nd ref="2" />
    <nd ref="3" />
    <nd ref="3" />
    <tag k="bicycle" v="use_sidepath" />
    <tag k="foot" v="use_sidepath" />
    <tag k="highway" v="secondary" />
    <tag k="junction" v="roundabout" />
    <tag k="maxspeed" v="100" />
    <tag k="ref" v="St 2069" />
    <tag k="surface" v="asphalt" />
    <tag k="tmc" v="DE:32282/32283" />
    <tag k="zone:traffic" v="DE:rural" />
  </way>

  <relation id="1" visible="true" version="1" changeset="1" timestamp="2023-01-01T00:00:00Z" user="example user" uid="1">
    <tag k="type" v="boundary" />
    <tag k="boundary" v="administrative" />
    <tag k="admin_level" v="2" />
    <tag k="ISO3166-1:alpha3" v="BRA" />
    <tag k="is_in:continent" v="South America" />
    <tag k="name" v="Brasil" />
    <tag k="int_name" v="Brazil" />
    <tag k="note" v="See https://www.openstreetmap.org/relation/59470" />
    <tag k="wikidata" v="Q155" />
  </relation>
  <relation id="2" visible="true" version="1" changeset="1" timestamp="2023-01-01T00:00:00Z" user="example user" uid="1">
    <tag k="type" v="boundary" />
    <tag k="boundary" v="administrative" />
    <tag k="admin_level" v="2" />
    <tag k="name" v="RegiÃ£o Sul" />
    <tag k="note" v="See https://www.openstreetmap.org/relation/2844750" />
    <tag k="wikidata" v="Q1060042" />
  </relation>
  <relation id="3" visible="true" version="1" changeset="1" timestamp="2023-01-01T00:00:00Z" user="example user" uid="1">
    <tag k="type" v="boundary" />
    <tag k="boundary" v="administrative" />
    <tag k="admin_level" v="4" />
    <tag k="IBGE:GEOCODIGO" v="43" />
    <tag k="ISO3166-2" v="BR-RS" />
    <tag k="name" v="Rio Grande do Sul" />
    <tag k="note" v="See https://www.openstreetmap.org/relation/242620" />
    <tag k="wikidata" v="Q40030" />
  </relation>
  <relation id="4" visible="true" version="1" changeset="1" timestamp="2023-01-01T00:00:00Z" user="example user" uid="1">
    <tag k="type" v="boundary" />
    <tag k="boundary" v="administrative" />
    <!-- <tag k="admin_level" v="5" /> ???? -->
    <tag k="IBGE:GEOCODIGO" v="43" />
    <tag k="name" v="Porto Alegre" />
    <tag k="note" v="See https://www.openstreetmap.org/node/313557783" />
    <tag k="wikidata" v="Q40269" />
  </relation>
  <relation id="10000" visible="true" version="6" changeset="105419300" timestamp="2021-05-27T10:47:23Z" user="salgo60" uid="305854">
    <member type="way" ref="100" role="outer" />
    <tag k="name" v="Example" />
    <tag k="natural" v="water" />
    <tag k="source:lake" v="Review by So9q using LM Topographic Map" />
    <tag k="type" v="multipolygon" />
    <tag k="water" v="lake" />
    <tag k="wikidata" v="Q18133662" />
  </relation>
</osm>
